STARLINK-2022           
1 47643U 21012Z   24169.78852608  .00007980  00000+0  55374-3 0  9996
2 47643  53.0552 359.3529 0001414  81.4903 278.6246 15.06417194185329
